STARLINK-31447          
1 59302U 24056G   26068.48980564 -.00000466  00000+0 -74071-5 0  9993
2 59302  43.0009 231.8462 0000947 274.9567  85.1176 15.27571238111128
BANDWAGON-4 OBJECT N    
1 66305U 25248N   26068.03100984  .00024115  00000+0  97341-3 0  9997
2 66305  45.4084 294.9612 0013521 206.7837 153.2354 15.24369076 17177
